GLOBALSTAR M069         
1 31573U 07020C   26201.30172442 -.00000053  00000+0  36132-3 0  9998
2 31573  52.0014 158.3977 0001522 221.2256 303.6484 12.23472403882850
GLOBALSTAR M072         
1 31574U 07020D   26201.78019747 -.00000092  00000+0 -10486-3 0  9997
2 31574  51.9952  10.8115 0001648  45.7413  56.8102 11.91658720878984
GLOBALSTAR M066         
1 32265U 07048C   26201.61594905 -.00000033  00000+0  51907-3 0  9998
2 32265  51.9612 321.9495 0005520 112.7664 260.2400 12.30390155864344
GLOBALSTAR M079         
1 37188U 10054A   26201.79985708 -.00000103  00000+0  59721-5 0  9994
2 37188  52.0057   6.3479 0001122  86.8814  21.4025 12.62266428726792
GLOBALSTAR M074         
1 37189U 10054B   26201.72628025 -.00000108  00000+0 -22145-4 0  9999
2 37189  52.0036   5.8322 0000849 101.4908 272.1774 12.62262037727399
GLOBALSTAR M076         
1 37190U 10054C   26201.77250789 -.00000090  00000+0  78716-4 0  9998
2 37190  52.0052   5.8977 0001095  98.8648   4.8835 12.62262572727111
GLOBALSTAR M077         
1 37191U 10054D   26201.94500666 -.00000098  00000+0 -36513-3 0  9997
2 37191  51.9962  93.6132 0002169 235.6827 209.8609 11.67547146725088
GLOBALSTAR M075         
1 37192U 10054E   26201.86559700 -.00000109  00000+0 -28053-4 0  9996
2 37192  51.9956  47.6493 0000788  73.1878  34.4152 12.62267891726197
GLOBALSTAR M073         
1 37193U 10054F   26201.60761279 -.00000098  00000+0  33742-4 0  9992
2 37193  52.0082 322.5622 0000991 105.3927 267.6127 12.62266940728152
GLOBALSTAR M083         
1 37739U 11033A   26201.46228733 -.00000094  00000+0  55294-4 0  9995
2 37739  51.9856 271.1887 0000696 111.3845 262.1674 12.62264350697150
GLOBALSTAR M088         
1 37740U 11033B   26201.30542031 -.00000098  00000+0  30622-4 0  9992
2 37740  52.0191 178.1717 0000131  38.5229 100.6158 12.62269494692673
GLOBALSTAR M091         
1 37741U 11033C   26201.56305480 -.00000086  00000+0  99156-4 0  9990
2 37741  51.9989 140.3041 0000554  32.8709 138.0964 12.62264310693490
GLOBALSTAR M085         
1 37742U 11033D   26201.84579856 -.00000092  00000+0  63626-4 0  9992
2 37742  52.0129  90.7653 0000882  51.7372  24.6874 12.62264513694043
GLOBALSTAR M081         
1 37743U 11033E   26201.87276200 -.00000097  00000+0  39958-4 0  9999
2 37743  51.9960  93.0808 0000761  63.0555  15.8381 12.62265381694193
GLOBALSTAR M089         
1 37744U 11033F   26201.75393678 -.00000108  00000+0 -22689-4 0  9993
2 37744  51.9941  47.5945 0000724  96.2416 343.5802 12.62267632695025
GLOBALSTAR M084         
1 38040U 11080A   26201.94580475 -.00000095  00000+0  47201-4 0  9990
2 38040  52.0009 274.5117 0000705 140.5467  31.3032 12.62263682673027
